{
  "type": "FeatureCollection",
  "features": [
    {
      "type": "Feature",
      "properties": {
        "norad_id": 35744,
        "name": "IRIDIUM 33 DEB",
        "group": "iridium-33-debris",
        "lat": 80.86606900434718,
        "lon": 125.0239581394911,
        "alt_km": 657.9714253354223,
        "timestamp": "2025-12-05T19:30:25.951994+00:00",
        "meta_object_name": "IRIDIUM 33 DEB",
        "meta_object_id": "1997-051RX",
        "meta_epoch": "2025-12-03T16:26:33.199008",
        "meta_mean_motion": 14.70784036,
        "meta_eccentricity": 0.00192992,
        "meta_inclination": 86.3279,
        "meta_ra_of_asc_node": 329.5276,
        "meta_arg_of_pericenter": 226.2399,
        "meta_mean_anomaly": 133.722,
        "meta_ephemeris_type": 0,
        "meta_classification_type": "U",
        "meta_norad_cat_id": 35744,
        "meta_element_set_no": 999,
        "meta_rev_at_epoch": 87198,
        "meta_bstar": 0.0017711667,
        "meta_mean_motion_dot": 0.0001087,
        "meta_mean_motion_ddot": 0,
        "tle_line1": "1 35744U 97051RX  25337.68510647  .00010870  00000+0  17712-2 0  9997",
        "tle_line2": "2 35744  86.3279 329.5276 0019299 226.2399 133.7220 14.70784036871988"
      },
      "geometry": {
        "type": "Point",
        "coordinates": [
          125.0239581394911,
          80.86606900434718
        ]
      }
    },
    {
      "type": "Feature",
      "properties": {
        "norad_id": 35797,
        "name": "IRIDIUM 33 DEB",
        "group": "iridium-33-debris",
        "lat": -75.18829263309819,
        "lon": 167.18225719078416,
        "alt_km": 627.8687997226934,
        "timestamp": "2025-12-05T19:30:25.952004+00:00",
        "meta_object_name": "IRIDIUM 33 DEB",
        "meta_object_id": "1997-051SF",
        "meta_epoch": "2025-12-04T06:43:04.165248",
        "meta_mean_motion": 14.82394656,
        "meta_eccentricity": 0.0011901,
        "meta_inclination": 86.3354,
        "meta_ra_of_asc_node": 333.8596,
        "meta_arg_of_pericenter": 177.769,
        "meta_mean_anomaly": 182.3588,
        "meta_ephemeris_type": 0,
        "meta_classification_type": "U",
        "meta_norad_cat_id": 35797,
        "meta_element_set_no": 999,
        "meta_rev_at_epoch": 87215,
        "meta_bstar": 0.0041876,
        "meta_mean_motion_dot": 0.0003372,
        "meta_mean_motion_ddot": 0,
        "tle_line1": "1 35797U 97051SF  25338.27990932  .00033720  00000+0  41876-2 0  9997",
        "tle_line2": "2 35797  86.3354 333.8596 0011901 177.7690 182.3588 14.82394656872154"
      },
      "geometry": {
        "type": "Point",
        "coordinates": [
          167.18225719078416,
          -75.18829263309819
        ]
      }
    },
    {
      "type": "Feature",
      "properties": {
        "norad_id": 35806,
        "name": "IRIDIUM 33 DEB",
        "group": "iridium-33-debris",
        "lat": 67.78844713385789,
        "lon": -165.3293707600605,
        "alt_km": 684.4808680526394,
        "timestamp": "2025-12-05T19:30:25.952014+00:00",
        "meta_object_name": "IRIDIUM 33 DEB",
        "meta_object_id": "1997-051SQ",
        "meta_epoch": "2025-12-04T10:02:10.629312",
        "meta_mean_motion": 14.57216644,
        "meta_eccentricity": 0.0016293,
        "meta_inclination": 86.3444,
        "meta_ra_of_asc_node": 24.2921,
        "meta_arg_of_pericenter": 100.3315,
        "meta_mean_anomaly": 259.9731,
        "meta_ephemeris_type": 0,
        "meta_classification_type": "U",
        "meta_norad_cat_id": 35806,
        "meta_element_set_no": 999,
        "meta_rev_at_epoch": 86203,
        "meta_bstar": 0.0027811,
        "meta_mean_motion_dot": 0.00012613,
        "meta_mean_motion_ddot": 0,
        "tle_line1": "1 35806U 97051SQ  25338.41817858  .00012613  00000+0  27811-2 0  9990",
        "tle_line2": "2 35806  86.3444  24.2921 0016293 100.3315 259.9731 14.57216644862032"
      },
      "geometry": {
        "type": "Point",
        "coordinates": [
          -165.3293707600605,
          67.78844713385789
        ]
      }
    },
    {
      "type": "Feature",
      "properties": {
        "norad_id": 35809,
        "name": "IRIDIUM 33 DEB",
        "group": "iridium-33-debris",
        "lat": 20.346946956000508,
        "lon": -20.131401135723525,
        "alt_km": 645.6881107321142,
        "timestamp": "2025-12-05T19:30:25.952025+00:00",
        "meta_object_name": "IRIDIUM 33 DEB",
        "meta_object_id": "1997-051ST",
        "meta_epoch": "2025-12-01T17:44:51.390816",
        "meta_mean_motion": 14.75313912,
        "meta_eccentricity": 0.00099663,
        "meta_inclination": 86.3281,
        "meta_ra_of_asc_node": 340.3571,
        "meta_arg_of_pericenter": 290.7283,
        "meta_mean_anomaly": 69.2867,
        "meta_ephemeris_type": 0,
        "meta_classification_type": "U",
        "meta_norad_cat_id": 35809,
        "meta_element_set_no": 999,
        "meta_rev_at_epoch": 86645,
        "meta_bstar": 0.0015973304,
        "meta_mean_motion_dot": 0.00010859,
        "meta_mean_motion_ddot": 0,
        "tle_line1": "1 35809U 97051ST  25335.73948369  .00010859  00000+0  15973-2 0  9993",
        "tle_line2": "2 35809  86.3281 340.3571 0009966 290.7283  69.2867 14.75313912866452"
      },
      "geometry": {
        "type": "Point",
        "coordinates": [
          -20.131401135723525,
          20.346946956000508
        ]
      }
    },
    {
      "type": "Feature",
      "properties": {
        "norad_id": 35846,
        "name": "IRIDIUM 33 DEB",
        "group": "iridium-33-debris",
        "lat": -70.97779722434701,
        "lon": -107.60735006805137,
        "alt_km": 748.844081637084,
        "timestamp": "2025-12-05T19:30:25.952035+00:00",
        "meta_object_name": "IRIDIUM 33 DEB",
        "meta_object_id": "1997-051SW",
        "meta_epoch": "2025-11-15T14:04:07.017312",
        "meta_mean_motion": 14.42992821,
        "meta_eccentricity": 0.00163082,
        "meta_inclination": 86.3745,
        "meta_ra_of_asc_node": 70.4244,
        "meta_arg_of_pericenter": 263.1259,
        "meta_mean_anomaly": 96.8086,
        "meta_ephemeris_type": 0,
        "meta_classification_type": "U",
        "meta_norad_cat_id": 35846,
        "meta_element_set_no": 999,
        "meta_rev_at_epoch": 70937,
        "meta_bstar": 0.0011049939,
        "meta_mean_motion_dot": 3.722e-05,
        "meta_mean_motion_ddot": 0,
        "tle_line1": "1 35846U 97051SW  25319.58619233  .00003722  00000+0  11050-2 0  9997",
        "tle_line2": "2 35846  86.3745  70.4244 0016308 263.1259  96.8086 14.42992821709373"
      },
      "geometry": {
        "type": "Point",
        "coordinates": [
          -107.60735006805137,
          -70.97779722434701
        ]
      }
    },
    {
      "type": "Feature",
      "properties": {
        "norad_id": 35848,
        "name": "IRIDIUM 33 DEB",
        "group": "iridium-33-debris",
        "lat": -79.46497080260035,
        "lon": -140.9280909925976,
        "alt_km": 638.0498301605166,
        "timestamp": "2025-12-05T19:30:25.952045+00:00",
        "meta_object_name": "IRIDIUM 33 DEB",
        "meta_object_id": "1997-051SY",
        "meta_epoch": "2025-12-01T10:21:45.439488",
        "meta_mean_motion": 14.7824162,
        "meta_eccentricity": 0.00067103,
        "meta_inclination": 86.3925,
        "meta_ra_of_asc_node": 21.2088,
        "meta_arg_of_pericenter": 240.9704,
        "meta_mean_anomaly": 119.0844,
        "meta_ephemeris_type": 0,
        "meta_classification_type": "U",
        "meta_norad_cat_id": 35848,
        "meta_element_set_no": 999,
        "meta_rev_at_epoch": 66523,
        "meta_bstar": 0.0018930249,
        "meta_mean_motion_dot": 0.00013775,
        "meta_mean_motion_ddot": 0,
        "tle_line1": "1 35848U 97051SY  25335.43177592  .00013775  00000+0  18930-2 0  9991",
        "tle_line2": "2 35848  86.3925  21.2088 0006710 240.9704 119.0844 14.78241620665238"
      },
      "geometry": {
        "type": "Point",
        "coordinates": [
          -140.9280909925976,
          -79.46497080260035
        ]
      }
    },
    {
      "type": "Feature",
      "properties": {
        "norad_id": 35850,
        "name": "IRIDIUM 33 DEB",
        "group": "iridium-33-debris",
        "lat": -41.00971284798756,
        "lon": 170.58012186031328,
        "alt_km": 634.7275283598092,
        "timestamp": "2025-12-05T19:30:25.952055+00:00",
        "meta_object_name": "IRIDIUM 33 DEB",
        "meta_object_id": "1997-051TA",
        "meta_epoch": "2025-12-05T07:08:26.215296",
        "meta_mean_motion": 14.78560894,
        "meta_eccentricity": 0.00082765,
        "meta_inclination": 86.3488,
        "meta_ra_of_asc_node": 347.6313,
        "meta_arg_of_pericenter": 214.509,
        "meta_mean_anomaly": 145.5594,
        "meta_ephemeris_type": 0,
        "meta_classification_type": "U",
        "meta_norad_cat_id": 35850,
        "meta_element_set_no": 999,
        "meta_rev_at_epoch": 71247,
        "meta_bstar": 0.0029878545,
        "meta_mean_motion_dot": 0.00021921,
        "meta_mean_motion_ddot": 0,
        "tle_line1": "1 35850U 97051TA  25339.29752564  .00021921  00000+0  29879-2 0  9996",
        "tle_line2": "2 35850  86.3488 347.6313 0008276 214.5090 145.5594 14.78560894712477"
      },
      "geometry": {
        "type": "Point",
        "coordinates": [
          170.58012186031328,
          -41.00971284798756
        ]
      }
    }
  ]
}